STARLINK-36366          
1 68122U 26044X   26087.81893727  .00248490  00000+0  16130-2 0  9992
2 68122  97.2849  48.9351 0001163  98.4754 261.6643 15.75273579  4494
STARLINK-36922          
1 68123U 26044Y   26087.88000183  .00142492  00000+0  93994-3 0  9995
2 68123  97.2850  49.0051 0001064  78.7894 281.3491 15.75200081  4502
STARLINK-36938          
1 68124U 26044Z   26087.83335647  .00057894  00000+0  38711-3 0  9994
2 68124  97.2846  49.0089 0001767  95.9614 119.8759 15.75145863  4485
STARLINK-36839          
1 68125U 26044AA  26087.81752870  .00094354  00000+0  62614-3 0  9995
2 68125  97.2851  48.9371 0001420  94.9702 265.1725 15.75203046  4494
ECHOSTAR 25             
1 68126U 26045A   26087.69892229  .00000039  00000+0  00000+0 0  9990
2 68126   0.0536 281.8242 0002358 107.4043 279.5835  1.00272343   183
ICOR SV                 
1 68127U 26046A   26087.51387037  .00443451  89274-4  68694-3 0  9990
2 68127 123.0769 291.4837 0105073 220.5917 138.7286 15.93773105  2592
FIREFLY ALPHA R/B       
1 68128U 26046B   26087.51771693  .00043840  00000+0  59261-3 0  9999
2 68128 123.0943 288.1046 0016133  17.9669 342.1959 15.57205945  2570
GUOWANG GROUP 20 OBJECT*
1 68129U 26047A   26086.33122156 -.00000106  00000+0  30515-4 0  9995
2 68129  50.0018 358.7253 0003228 358.1957   1.8932 13.95700641  2043
GUOWANG GROUP 20 OBJECT*
1 68130U 26047B   26085.75628566 -.00000072  00000+0  55036-4 0  9995
2 68130  50.0066   1.0171 0000428 307.3036  52.7826 13.96591410  1957
GUOWANG GROUP 20 OBJECT*
1 68131U 26047C   26085.82615450 -.00000111  00000+0  27090-4 0  9995
2 68131  49.9996   0.7054 0000048  49.5998 310.4907 13.96862690  1970
GUOWANG GROUP 20 OBJECT*
1 68132U 26047D   26083.82212781 -.00000102  00000+0  32409-4 0  9994
2 68132  50.0048   8.7665 0002416   7.3102 352.7836 14.00513037  1680
GUOWANG GROUP 20 OBJECT*
1 68133U 26047E   26083.32146819 -.00000126  00000+0  15966-4 0  9993
2 68133  49.9979  10.8404 0003230 188.5214 171.5635 14.01339008  1620
GUOWANG GROUP 20 OBJECT*
1 68134U 26047F   26083.10517479 -.00000032  00000+0  77668-4 0  9997
2 68134  50.0123  11.6502 0000475 222.9253 137.1614 14.01903676  1585
GUOWANG GROUP 20 OBJECT*
1 68135U 26047G   26085.74432800  .00000018  00000+0  11069-3 0  9999
2 68135  50.0409   0.8903 0004806 213.0056 147.0548 14.01583953  1962
GUOWANG GROUP 20 OBJECT*
1 68136U 26047H   26084.03205513 -.00000099  00000+0  33918-4 0  9998
2 68136  49.9530   7.8688 0014532 103.7924 256.4596 14.01074305  1715
GUOWANG GROUP 20 OBJECT*
1 68137U 26047J   26082.88983446 -.00000137  00000+0  91454-5 0  9991
2 68137  50.0081  12.5219 0000175 124.6965 235.3956 14.02259904  1568
